start=new Date('2023-04-06T00:00:00.000Z').valueOf();
sats=[{"MEAN_MOTION_DDOT":"0.0000000000000","FILE":"3880853","OBJECT_TYPE":"PAYLOAD","EPHEMERIS_TYPE":"0","RA_OF_ASC_NODE":"7.5628","SITE":"AFETR","ARG_OF_PERICENTER":"99.2389","PERIOD":"95.596","INCLINATION":"53.0549","MEAN_ANOMALY":"260.8748","MEAN_ELEMENT_THEORY":"SGP4","NORAD_CAT_ID":"45090","TIME_SYSTEM":"UTC","APOAPSIS":"548.313","MEAN_MOTION_DOT":"0.00032316","TLE_LINE1":"1 45090U 20006AY  23095.23793805  .00032316  00000-0  21821-2 0  9993","MEAN_MOTION":"15.06338066","COUNTRY_CODE":"US","TLE_LINE2":"2 45090  53.0549   7.5628 0001314  99.2389 260.8748 15.06338066175830","CENTER_NAME":"EARTH","ECCENTRICITY":"0.00013140","REV_AT_EPOCH":"17583","DECAY_DATE":null,"PERIAPSIS":"546.493","BSTAR":"0.00218210000000","OBJECT_ID":"2020-006AY","CLASSIFICATION_TYPE":"U","OBJECT_NAME":"STARLINK-1176","RCS_SIZE":"LARGE","GP_ID":"229533183","REF_FRAME":"TEME","EPOCH":"2023-04-05T05:42:37.847520","LAUNCH_DATE":"2020-01-29","ELEMENT_SET_NO":"999","SEMIMAJOR_AXIS":"6925.538"},{"BSTAR":"0.00108270000000","OBJECT_ID":"2020-006BA","CLASSIFICATION_TYPE":"U","OBJECT_NAME":"STARLINK-1137","REF_FRAME":"TEME","GP_ID":"229533433","RCS_SIZE":"LARGE","EPOCH":"2023-04-05T03:31:17.129856","LAUNCH_DATE":"2020-01-29","ELEMENT_SET_NO":"999","SEMIMAJOR_AXIS":"6925.564","COUNTRY_CODE":"US","MEAN_MOTION":"15.06329866","TLE_LINE2":"2 45092  53.0550   7.9809 0001748 106.2433 253.8748 15.06329866175817","CENTER_NAME":"EARTH","ECCENTRICITY":"0.00017480","REV_AT_EPOCH":"17581","DECAY_DATE":null,"PERIAPSIS":"546.218","TIME_SYSTEM":"UTC","APOAPSIS":"548.639","MEAN_MOTION_DOT":"0.00015852","TLE_LINE1":"1 45092U 20006BA  23095.14672604  .00015852  00000-0  10827-2 0  9998","MEAN_MOTION_DDOT":"0.0000000000000","FILE":"3880853","OBJECT_TYPE":"PAYLOAD","EPHEMERIS_TYPE":"0","RA_OF_ASC_NODE":"7.9809","SITE":"AFETR","ARG_OF_PERICENTER":"106.2433","PERIOD":"95.597","INCLINATION":"53.0550","MEAN_ANOMALY":"253.8748","MEAN_ELEMENT_THEORY":"SGP4","NORAD_CAT_ID":"45092"},{"MEAN_MOTION_DOT":"0.00034894","APOAPSIS":"547.916","TIME_SYSTEM":"UTC","TLE_LINE1":"1 45093U 20006BB  23095.27574433  .00034894  00000-0  23518-2 0  9992","RA_OF_ASC_NODE":"7.4053","EPHEMERIS_TYPE":"0","OBJECT_TYPE":"PAYLOAD","MEAN_MOTION_DDOT":"0.0000000000000","FILE":"3880853","NORAD_CAT_ID":"45093","MEAN_ELEMENT_THEORY":"SGP4","MEAN_ANOMALY":"272.6660","PERIOD":"95.594","INCLINATION":"53.0550","ARG_OF_PERICENTER":"87.4430","SITE":"AFETR","CLASSIFICATION_TYPE":"U","OBJECT_ID":"2020-006BB","BSTAR":"0.00235180000000","SEMIMAJOR_AXIS":"6925.442","EPOCH":"2023-04-05T06:37:04.310112","LAUNCH_DATE":"2020-01-29","ELEMENT_SET_NO":"999","GP_ID":"229534681","REF_FRAME":"TEME","RCS_SIZE":"LARGE","OBJECT_NAME":"STARLINK-1142","TLE_LINE2":"2 45093  53.0550   7.4053 0000880  87.4430 272.6660 15.06369647175832","MEAN_MOTION":"15.06369647","COUNTRY_CODE":"US","PERIAPSIS":"546.697","DECAY_DATE":null,"REV_AT_EPOCH":"17583","ECCENTRICITY":"0.00008800","CENTER_NAME":"EARTH"},{"TLE_LINE1":"1 45094U 20006BC  23095.88668053  .00029307  00000-0  19764-2 0  9993","TIME_SYSTEM":"UTC","APOAPSIS":"548.119","MEAN_MOTION_DOT":"0.00029307","SITE":"AFETR","MEAN_ANOMALY":"240.6972","MEAN_ELEMENT_THEORY":"SGP4","NORAD_CAT_ID":"45094","ARG_OF_PERICENTER":"119.4163","PERIOD":"95.590","INCLINATION":"53.0555","MEAN_MOTION_DDOT":"0.0000000000000","FILE":"3881153","EPHEMERIS_TYPE":"0","RA_OF_ASC_NODE":"4.6535","OBJECT_TYPE":"PAYLOAD","LAUNCH_DATE":"2020-01-29","EPOCH":"2023-04-05T21:16:49.197792","ELEMENT_SET_NO":"999","OBJECT_NAME":"STARLINK-1146","GP_ID":"229567574","RCS_SIZE":"LARGE","REF_FRAME":"TEME","SEMIMAJOR_AXIS":"6925.244","BSTAR":"0.00197640000000","CLASSIFICATION_TYPE":"U","OBJECT_ID":"2020-006BC","CENTER_NAME":"EARTH","DECAY_DATE":null,"PERIAPSIS":"546.098","ECCENTRICITY":"0.00014590","REV_AT_EPOCH":"17593","TLE_LINE2":"2 45094  53.0555   4.6535 0001459 119.4163 240.6972 15.06434155175933","MEAN_MOTION":"15.06434155","COUNTRY_CODE":"US"},{"CENTER_NAME":"EARTH","DECAY_DATE":null,"PERIAPSIS":"546.301","ECCENTRICITY":"0.00012130","REV_AT_EPOCH":"17593","TLE_LINE2":"2 45095  53.0569   4.6408 0001213  95.0463 265.0665 15.06423608175939","MEAN_MOTION":"15.06423608","COUNTRY_CODE":"US","LAUNCH_DATE":"2020-01-29","EPOCH":"2023-04-05T21:22:06.893184","ELEMENT_SET_NO":"999","OBJECT_NAME":"STARLINK-1147","RCS_SIZE":"LARGE","GP_ID":"229566340","REF_FRAME":"TEME","SEMIMAJOR_AXIS":"6925.276","BSTAR":"0.00162610000000","CLASSIFICATION_TYPE":"U","OBJECT_ID":"2020-006BD","SITE":"AFETR","MEAN_ANOMALY":"265.0665","MEAN_ELEMENT_THEORY":"SGP4","NORAD_CAT_ID":"45095","ARG_OF_PERICENTER":"95.0463","PERIOD":"95.591","INCLINATION":"53.0569","FILE":"3881153","MEAN_MOTION_DDOT":"0.0000000000000","EPHEMERIS_TYPE":"0","RA_OF_ASC_NODE":"4.6408","OBJECT_TYPE":"PAYLOAD","TLE_LINE1":"1 45095U 20006BD  23095.89035756  .00024038  00000-0  16261-2 0  9998","TIME_SYSTEM":"UTC","APOAPSIS":"547.981","MEAN_MOTION_DOT":"0.00024038"},{"CENTER_NAME":"EARTH","DECAY_DATE":null,"PERIAPSIS":"546.560","ECCENTRICITY":"0.00008370","REV_AT_EPOCH":"17592","TLE_LINE2":"2 45096  53.0559   4.6765 0000837  95.9709 264.1375 15.06424123175928","COUNTRY_CODE":"US","MEAN_MOTION":"15.06424123","EPOCH":"2023-04-05T21:12:52.190496","LAUNCH_DATE":"2020-01-29","ELEMENT_SET_NO":"999","OBJECT_NAME":"STARLINK-1152","REF_FRAME":"TEME","GP_ID":"229567090","RCS_SIZE":"LARGE","SEMIMAJOR_AXIS":"6925.275","BSTAR":"0.00167190000000","CLASSIFICATION_TYPE":"U","OBJECT_ID":"2020-006BE","SITE":"AFETR","MEAN_ANOMALY":"264.1375","MEAN_ELEMENT_THEORY":"SGP4","NORAD_CAT_ID":"45096","ARG_OF_PERICENTER":"95.9709","INCLINATION":"53.0559","PERIOD":"95.591","MEAN_MOTION_DDOT":"0.0000000000000","FILE":"3881153","EPHEMERIS_TYPE":"0","RA_OF_ASC_NODE":"4.6765","OBJECT_TYPE":"PAYLOAD","TLE_LINE1":"1 45096U 20006BE  23095.88393739  .00024725  00000-0  16719-2 0  9997","TIME_SYSTEM":"UTC","APOAPSIS":"547.719","MEAN_MOTION_DOT":"0.00024725"},{"TLE_LINE1":"1 45098U 20006BG  23095.26839789  .00033797  00000-0  22772-2 0  9996","TIME_SYSTEM":"UTC","APOAPSIS":"548.010","MEAN_MOTION_DOT":"0.00033797","SITE":"AFETR","MEAN_ANOMALY":"281.2958","MEAN_ELEMENT_THEORY":"SGP4","NORAD_CAT_ID":"45098","ARG_OF_PERICENTER":"78.8158","INCLINATION":"53.0552","PERIOD":"95.592","MEAN_MOTION_DDOT":"0.0000000000000","FILE":"3880853","EPHEMERIS_TYPE":"0","RA_OF_ASC_NODE":"7.4354","OBJECT_TYPE":"PAYLOAD","LAUNCH_DATE":"2020-01-29","ELEMENT_SET_NO":"999","EPOCH":"2023-04-05T06:26:29.577696","OBJECT_NAME":"STARLINK-1184","GP_ID":"229534182","REF_FRAME":"TEME","RCS_SIZE":"LARGE","SEMIMAJOR_AXIS":"6925.360","BSTAR":"0.00227720000000","CLASSIFICATION_TYPE":"U","OBJECT_ID":"2020-006BG","CENTER_NAME":"EARTH","DECAY_DATE":null,"PERIAPSIS":"546.441","ECCENTRICITY":"0.00011330","REV_AT_EPOCH":"17583","TLE_LINE2":"2 45098  53.0552   7.4354 0001133  78.8158 281.2958 15.06396174175837","MEAN_MOTION":"15.06396174","COUNTRY_CODE":"US"},{"LAUNCH_DATE":"2020-01-29","ELEMENT_SET_NO":"999","EPOCH":"2023-04-05T05:38:41.087328","GP_ID":"229534422","RCS_SIZE":"LARGE","REF_FRAME":"TEME","OBJECT_NAME":"STARLINK-1186","SEMIMAJOR_AXIS":"6925.476","BSTAR":"0.00230000000000","CLASSIFICATION_TYPE":"U","OBJECT_ID":"2020-006BH","CENTER_NAME":"EARTH","PERIAPSIS":"546.428","DECAY_DATE":null,"REV_AT_EPOCH":"17583","ECCENTRICITY":"0.00013190","TLE_LINE2":"2 45099  53.0559   7.5850 0001319  89.5659 270.5481 15.06358407175837","COUNTRY_CODE":"US","MEAN_MOTION":"15.06358407","TLE_LINE1":"1 45099U 20006BH  23095.23519777  .00034105  00000-0  23000-2 0  9995","TIME_SYSTEM":"UTC","MEAN_MOTION_DOT":"0.00034105","APOAPSIS":"548.255","SITE":"AFETR","NORAD_CAT_ID":"45099","MEAN_ELEMENT_THEORY":"SGP4","MEAN_ANOMALY":"270.5481","PERIOD":"95.595","INCLINATION":"53.0559","ARG_OF_PERICENTER":"89.5659","MEAN_MOTION_DDOT":"0.0000000000000","FILE":"3880853","RA_OF_ASC_NODE":"7.5850","EPHEMERIS_TYPE":"0","OBJECT_TYPE":"PAYLOAD"},{"TLE_LINE1":"1 45100U 20006BJ  23095.26469461  .00031353  00000-0  21157-2 0  9998","TIME_SYSTEM":"UTC","APOAPSIS":"548.352","MEAN_MOTION_DOT":"0.00031353","SITE":"AFETR","ARG_OF_PERICENTER":"128.3976","INCLINATION":"53.0544","PERIOD":"95.594","MEAN_ANOMALY":"231.7152","NORAD_CAT_ID":"45100","MEAN_ELEMENT_THEORY":"SGP4","MEAN_MOTION_DDOT":"0.0000000000000","FILE":"3880853","OBJECT_TYPE":"PAYLOAD","EPHEMERIS_TYPE":"0","RA_OF_ASC_NODE":"7.4526","OBJECT_NAME":"STARLINK-1193","GP_ID":"229533184","REF_FRAME":"TEME","RCS_SIZE":"LARGE","LAUNCH_DATE":"2020-01-29","ELEMENT_SET_NO":"999","EPOCH":"2023-04-05T06:21:09.614304","SEMIMAJOR_AXIS":"6925.418","BSTAR":"0.00211570000000","OBJECT_ID":"2020-006BJ","CLASSIFICATION_TYPE":"U","CENTER_NAME":"EARTH","ECCENTRICITY":"0.00015430","REV_AT_EPOCH":"17583","DECAY_DATE":null,"PERIAPSIS":"546.214","COUNTRY_CODE":"US","MEAN_MOTION":"15.06377338","TLE_LINE2":"2 45100  53.0544   7.4526 0001543 128.3976 231.7152 15.06377338175834"},{"MEAN_ANOMALY":"249.2746","MEAN_ELEMENT_THEORY":"SGP4","NORAD_CAT_ID":"45101","ARG_OF_PERICENTER":"110.8366","PERIOD":"95.593","INCLINATION":"53.0547","SITE":"AFETR","EPHEMERIS_TYPE":"0","RA_OF_ASC_NODE":"7.4664","OBJECT_TYPE":"PAYLOAD","FILE":"3880853","MEAN_MOTION_DDOT":"0.0000000000000","TLE_LINE1":"1 45101U 20006BK  23095.26007046  .00002370  00000-0  17800-3 0  9994","APOAPSIS":"548.063","MEAN_MOTION_DOT":"0.00002370","TIME_SYSTEM":"UTC","DECAY_DATE":null,"PERIAPSIS":"546.473","ECCENTRICITY":"0.00011480","REV_AT_EPOCH":"17583","CENTER_NAME":"EARTH","TLE_LINE2":"2 45101  53.0547   7.4664 0001148 110.8366 249.2746 15.06382168175831","COUNTRY_CODE":"US","MEAN_MOTION":"15.06382168","SEMIMAJOR_AXIS":"6925.403","ELEMENT_SET_NO":"999","LAUNCH_DATE":"2020-01-29","EPOCH":"2023-04-05T06:14:30.087744","OBJECT_NAME":"STARLINK-1194","GP_ID":"229533434","REF_FRAME":"TEME","RCS_SIZE":"LARGE","CLASSIFICATION_TYPE":"U","OBJECT_ID":"2020-006BK","BSTAR":"0.00017800000000"}];
